NORAD_CAT_ID,OBJECT_NAME,OBJECT_TYPE,EPOCH,MEAN_MOTION,ECCENTRICITY,INCLINATION,RA_OF_ASC_NODE,ARG_OF_PERICENTER,MEAN_ANOMALY,BSTAR,MEAN_MOTION_DOT,MEAN_MOTION_DDOT,TLE_LINE0,TLE_LINE1,TLE_LINE2,SEMIMAJOR_AXIS,PERIOD,APOGEE,PERIGEE,DECAYED
52859.0,STARLINK-4196,PAYLOAD,2022-09-21 08:00:01,15.08843916,0.0001608,53.2143,304.5137,54.3788,163.2451,-0.0010906,-0.00017605,0.0,0 STARLINK-4196,1 52859U 22062AF  22264.33334491 -.00017605  00000-0 -10906-2 0  9996,2 52859  53.2143 304.5137 0001608  54.3788 163.2451 15.08843916 15397,6917.868,95.437,540.846,538.621,0.0
52859.0,STARLINK-4196,PAYLOAD,2022-09-21 22:00:00,15.08803915,0.0001441999999999,53.2151,301.8938,54.1086,93.8146,0.0017913,0.00028307,0.0,0 STARLINK-4196,1 52859U 22062AF  22264.91667824  .00028307  00000-0  17913-2 0  9993,2 52859  53.2151 301.8938 0001442  54.1086  93.8146 15.08803915  1300,6917.991,95.44,540.8530000000002,538.8580000000002,0.0
52859.0,STARLINK-4196,PAYLOAD,2022-09-22 14:00:01,15.08810362,0.0001657,53.2154,298.9027,47.2395,123.8284,0.0025653,0.00040742,0.0,0 STARLINK-4196,1 52859U 22062AF  22265.58334491  .00040742  00000-0  25653-2 0  9995,2 52859  53.2154 298.9027 0001657  47.2395 123.8284 15.08810362  1303,6917.971,95.439,540.982,538.69,0.0
52859.0,STARLINK-4196,PAYLOAD,2022-09-22 22:00:00,15.08814721,0.0001506999999999,53.2153,297.4045,53.0485,129.6044,0.0022712,0.00036018,0.0,0 STARLINK-4196,1 52859U 22062AF  22265.91667824  .00036018  00000-0  22712-2 0  9995,2 52859  53.2153 297.4045 0001507  53.0485 129.6044 15.08814721  1306,6917.958000000001,95.439,540.865,538.78,0.0
52859.0,STARLINK-4196,PAYLOAD,2022-09-23 06:00:00,15.08840351,0.0001699999999999,53.2171,295.9134,52.5041,141.7395,-0.0004033,-6.701e-05,0.0,0 STARLINK-4196,1 52859U 22062AF  22266.25001157 -.00006701  00000-0 -40330-3 0  9999,2 52859  53.2171 295.9134 0001700  52.5041 141.7395 15.08840351 15683,6917.879,95.438,540.92,538.568,0.0
52859.0,STARLINK-4196,PAYLOAD,2022-09-23 14:00:01,15.08834437,0.0001735,53.2151,294.4134,46.7602,159.0711,0.0017527999999999,0.00027714,0.0,0 STARLINK-4196,1 52859U 22062AF  22266.58334491  .00027714  00000-0  17528-2 0  9992,2 52859  53.2151 294.4134 0001735  46.7602 159.0711 15.08834437  1307,6917.897,95.438,540.9630000000002,538.562,0.0
52859.0,STARLINK-4196,PAYLOAD,2022-09-23 22:00:00,15.0882499,0.0001546,53.2153,292.9152,50.8263,166.6155,0.00070113,0.00010884,0.0,0 STARLINK-4196,1 52859U 22062AF  22266.91667824  .00010884  00000-0  70113-3 0  9998,2 52859  53.2153 292.9152 0001546  50.8263 166.6155 15.08824990  1300,6917.926,95.439,540.861,538.722,0.0
52859.0,STARLINK-4196,PAYLOAD,2022-09-24 14:00:01,15.0883402,0.0001758,53.2152,289.9239,45.1228,195.5593,0.0016042,0.00025331,0.0,0 STARLINK-4196,1 52859U 22062AF  22267.58335648  .00025331  00000-0  16042-2 0  9991,2 52859  53.2152 289.9239 0001758  45.1228 195.5593 15.08834020 15884,6917.899,95.438,540.98,538.548,0.0
52859.0,STARLINK-4196,PAYLOAD,2022-09-24 22:00:00,15.08836266,0.0001644,53.2154,288.4257,51.9808,200.2438,0.0011337,0.00017799,0.0,0 STARLINK-4196,1 52859U 22062AF  22267.91667824  .00017799  00000-0  11337-2 0  9993,2 52859  53.2154 288.4257 0001644  51.9808 200.2438 15.08836266  1301,6917.892,95.438,540.894,538.62,0.0
52859.0,STARLINK-4196,PAYLOAD,2022-09-25 06:00:00,15.08847745,0.0001841,53.2155,286.9303,52.0501,211.7779,-0.0016262,-0.00026082,0.0,0 STARLINK-4196,1 52859U 22062AF  22268.25001157 -.00026082  00000-0 -16262-2 0  9991,2 52859  53.2155 286.9303 0001841  52.0501 211.7779 15.08847745 15986,6917.857,95.437,540.995,538.448,0.0
52859.0,STARLINK-4196,PAYLOAD,2022-09-25 14:00:01,15.08837028,0.0001906,53.2153,285.4343,48.2601,227.1589,0.00091391,0.00014286,0.0,0 STARLINK-4196,1 52859U 22062AF  22268.58334491  .00014286  00000-0  91391-3 0  9995,2 52859  53.2153 285.4343 0001906  48.2601 227.1589 15.08837028  1306,6917.889,95.438,541.073,538.436,0.0
52859.0,STARLINK-4196,PAYLOAD,2022-09-25 22:00:01,15.08831323,0.0001699,53.2157,283.9366,54.2447,232.8347,0.00010094,1.318e-05,0.0,0 STARLINK-4196,1 52859U 22062AF  22268.91668981  .00001318  00000-0  10094-3 0  9999,2 52859  53.2157 283.9366 0001699  54.2447 232.8347 15.08831323 16080,6917.906999999997,95.438,540.947,538.597,0.0
52859.0,STARLINK-4196,PAYLOAD,2022-09-26 00:00:00,15.08831501,0.0001705,53.2158,283.5629,55.705,324.208,3.6923e-05,2.99e-06,0.0,0 STARLINK-4196,1 52859U 22062AF  22269.00001157  .00000299  00000-0  36923-4 0  9993,2 52859  53.2158 283.5629 0001705  55.7050 324.2080 15.08831501  1300,6917.906,95.438,540.951,538.592,0.0
52859.0,STARLINK-4196,PAYLOAD,2022-09-26 14:00:01,15.08831798,0.0001838,53.2154,280.9446,46.9646,263.213,1.3628e-05,-7.1e-07,0.0,0 STARLINK-4196,1 52859U 22062AF  22269.58334491 -.00000071  00000-0  13628-4 0  9992,2 52859  53.2154 280.9446 0001838  46.9646 263.2130 15.08831798  1300,6917.905,95.438,541.0419999999998,538.499,0.0
52859.0,STARLINK-4196,PAYLOAD,2022-09-27 00:00:00,15.08824158,0.0001704,53.2157,279.0724,55.6314,359.0298,0.0022183,0.00035178,0.0,0 STARLINK-4196,1 52859U 22062AF  22270.00001157  .00035178  00000-0  22183-2 0  9990,2 52859  53.2157 279.0724 0001704  55.6314 359.0298 15.08824158  1303,6917.929,95.439,540.9730000000002,538.615,0.0
52859.0,STARLINK-4196,PAYLOAD,2022-09-27 06:00:00,15.08849245,0.0001816,53.2156,277.9514,51.448,281.9035,-0.0012212,-0.00019676,0.0,0 STARLINK-4196,1 52859U 22062AF  22270.25001157 -.00019676  00000-0 -12212-2 0  9996,2 52859  53.2156 277.9514 0001816  51.4480 281.9035 15.08849245 16287,6917.852,95.437,540.9730000000002,538.461,0.0
52859.0,STARLINK-4196,PAYLOAD,2022-09-27 14:00:01,15.08855941,0.0001844999999999,53.2153,276.4549,49.0016,295.9483,-0.00022113,-3.807e-05,0.0,0 STARLINK-4196,1 52859U 22062AF  22270.58334491 -.00003807  00000-0 -22113-3 0  9993,2 52859  53.2153 276.4549 0001845  49.0016 295.9483 15.08855941  1305,6917.831999999999,95.437,540.9730000000002,538.42,0.0
52859.0,STARLINK-4196,PAYLOAD,2022-09-27 22:00:01,15.08844044,0.000174,53.2154,274.9569,57.6581,298.9733,0.00067583,0.00010485,0.0,0 STARLINK-4196,1 52859U 22062AF  22270.91668981  .00010485  00000-0  67583-3 0  9992,2 52859  53.2154 274.9569 0001740  57.6581 298.9733 15.08844044  1300,6917.868,95.437,540.937,538.529,0.0
52859.0,STARLINK-4196,PAYLOAD,2022-09-28 14:00:01,15.08871239,0.0001906999999999,53.2151,271.9654,52.5034,327.2681,-0.0034798,-0.00055293,0.0,0 STARLINK-4196,1 52859U 22062AF  22271.58334491 -.00055293  00000-0 -34798-2 0  9991,2 52859  53.2151 271.9654 0001907  52.5034 327.2681 15.08871239  1305,6917.785,95.436,540.969,538.331,0.0
52859.0,STARLINK-4196,PAYLOAD,2022-09-28 22:00:00,15.08801366,0.0001736,53.2152,270.4675,59.0171,332.3392,0.0031205,0.00049673,0.0,0 STARLINK-4196,1 52859U 22062AF  22271.91667824  .00049673  00000-0  31205-2 0  9990,2 52859  53.2152 270.4675 0001736  59.0171 332.3392 15.08801366 16538,6917.998000000001,95.44,541.064,538.663,0.0
52859.0,STARLINK-4196,PAYLOAD,2022-09-29 14:00:01,15.08849309,0.0001893,53.215,267.476,53.1784,1.3318,-0.00097494,-0.00015775,0.0,0 STARLINK-4196,1 52859U 22062AF  22272.58334491 -.00015775  00000-0 -97494-3 0  9996,2 52859  53.2150 267.4760 0001893  53.1784   1.3318 15.08849309 16637,6917.852,95.437,541.026,538.4069999999998,0.0
52859.0,STARLINK-4196,PAYLOAD,2022-09-29 22:00:00,15.08832508,0.0001778,53.2151,265.9782,60.0424,6.072,0.0020897,0.0003312,0.0,0 STARLINK-4196,1 52859U 22062AF  22272.91667824  .00033120  00000-0  20897-2 0  9996,2 52859  53.2151 265.9782 0001778  60.0424   6.0720 15.08832508  1305,6917.903,95.438,540.998,538.538,0.0
52859.0,STARLINK-4196,PAYLOAD,2022-09-30 14:00:01,15.08848735,0.0001844,53.2151,262.9867,52.4075,36.8966,-0.00095581,-0.00015471,0.0,0 STARLINK-4196,1 52859U 22062AF  22273.58334491 -.00015471  00000-0 -95581-3 0  9995,2 52859  53.2151 262.9867 0001844  52.4075  36.8966 15.08848735  1309,6917.854,95.437,540.994,538.443,0.0
52859.0,STARLINK-4196,PAYLOAD,2022-09-30 16:00:00,15.08850376,0.0001789,53.2153,262.6121,54.7286,127.4745,-0.001159,-0.00018692,0.0,0 STARLINK-4196,1 52859U 22062AF  22273.66667824 -.00018692  00000-0 -11590-2 0  9998,2 52859  53.2153 262.6121 0001789  54.7286 127.4745 15.08850376 16805,6917.849,95.437,540.951,538.476,0.0
52859.0,STARLINK-4196,PAYLOAD,2022-09-30 22:00:00,15.08843464,0.0001747,53.2153,261.4889,59.1267,41.7799,0.0010405999999999,0.00016314,0.0,0 STARLINK-4196,1 52859U 22062AF  22273.91667824  .00016314  00000-0  10406-2 0  9998,2 52859  53.2153 261.4889 0001747  59.1267  41.7799 15.08843464  1301,6917.87,95.437,540.943,538.526,0.0
52859.0,STARLINK-4196,PAYLOAD,2022-10-01 14:00:01,15.08860378,0.0001799,53.2154,258.4975,50.9648,73.1342,-0.0021187,-0.00033868,0.0,0 STARLINK-4196,1 52859U 22062AF  22274.58334491 -.00033868  00000-0 -21187-2 0  9996,2 52859  53.2154 258.4975 0001799  50.9648  73.1342 15.08860378  1309,6917.818,95.436,540.928,538.439,0.0
52859.0,STARLINK-4196,PAYLOAD,2022-10-01 22:00:00,15.0883253,0.000166,53.2157,256.9998,56.844,78.8638,-2.1717e-05,-6.34e-06,0.0,0 STARLINK-4196,1 52859U 22062AF  22274.91667824 -.00000634  00000-0 -21717-4 0  9998,2 52859  53.2157 256.9998 0001660  56.8440  78.8638 15.08832530  1301,6917.903,95.438,540.9169999999998,538.62,0.0
52859.0,STARLINK-4196,PAYLOAD,2022-10-02 14:00:01,15.088452800000002,0.0001720999999999,53.2157,254.0083,49.8886,108.9774,-0.0012224,-0.00019693,0.0,0 STARLINK-4196,1 52859U 22062AF  22275.58334491 -.00019693  00000-0 -12224-2 0  9999,2 52859  53.2157 254.0083 0001721  49.8886 108.9774 15.08845280 17094,6917.864000000001,95.437,540.92,538.539,0.0
52859.0,STARLINK-4196,PAYLOAD,2022-10-02 22:00:00,15.08847227,0.0001624,53.216,252.5109,56.62300000000001,113.8356,0.00020498,2.976e-05,0.0,0 STARLINK-4196,1 52859U 22062AF  22275.91667824  .00002976  00000-0  20498-3 0  9992,2 52859  53.2160 252.5109 0001624  56.6230 113.8356 15.08847227  1302,6917.858,95.437,540.847,538.6,0.0
